[{"OBJECT_NAME":"ONEWEB-0597","OBJECT_ID":"2022-166X","EPOCH":"2026-05-19T07:06:08.466912","MEAN_MOTION":13.21824154,"ECCENTRICITY":0.0002087,"INCLINATION":87.9248,"RA_OF_ASC_NODE":249.737,"ARG_OF_PERICENTER":98.953,"MEAN_ANOMALY":261.184,"EPHEMERIS_TYPE":0,"CLASSIFICATION_TYPE":"U","NORAD_CAT_ID":54663,"ELEMENT_SET_NO":999,"REV_AT_EPOCH":16772,"BSTAR":3.5354999999999996e-05,"MEAN_MOTION_DOT":2.8e-07,"MEAN_MOTION_DDOT":0.0},{"OBJECT_NAME":"ONEWEB-0600","OBJECT_ID":"2022-166Y","EPOCH":"2026-05-19T06:39:30.231936","MEAN_MOTION":13.21826636,"ECCENTRICITY":0.0001986,"INCLINATION":87.925,"RA_OF_ASC_NODE":249.7317,"ARG_OF_PERICENTER":93.6282,"MEAN_ANOMALY":266.5079,"EPHEMERIS_TYPE":0,"CLASSIFICATION_TYPE":"U","NORAD_CAT_ID":54664,"ELEMENT_SET_NO":999,"REV_AT_EPOCH":16769,"BSTAR":-4.0769e-06,"MEAN_MOTION_DOT":1.1e-07,"MEAN_MOTION_DDOT":0.0},{"OBJECT_NAME":"ONEWEB-0601","OBJECT_ID":"2022-166Z","EPOCH":"2026-05-19T06:27:23.149152","MEAN_MOTION":13.21827286,"ECCENTRICITY":0.0002249,"INCLINATION":87.9241,"RA_OF_ASC_NODE":249.7495,"ARG_OF_PERICENTER":100.3347,"MEAN_ANOMALY":259.8041,"EPHEMERIS_TYPE":0,"CLASSIFICATION_TYPE":"U","NORAD_CAT_ID":54665,"ELEMENT_SET_NO":999,"REV_AT_EPOCH":16788,"BSTAR":0.00021616,"MEAN_MOTION_DOT":1.02e-06,"MEAN_MOTION_DDOT":0.0},{"OBJECT_NAME":"ONEWEB-0602","OBJECT_ID":"2022-166AA","EPOCH":"2026-05-19T07:26:42.644256","MEAN_MOTION":13.21823797,"ECCENTRICITY":0.0002032,"INCLINATION":87.925,"RA_OF_ASC_NODE":249.7478,"ARG_OF_PERICENTER":92.524,"MEAN_ANOMALY":267.6126,"EPHEMERIS_TYPE":0,"CLASSIFICATION_TYPE":"U","NORAD_CAT_ID":54666,"ELEMENT_SET_NO":999,"REV_AT_EPOCH":16773,"BSTAR":0.00011003,"MEAN_MOTION_DOT":5.8e-07,"MEAN_MOTION_DDOT":0.0},{"OBJECT_NAME":"ONEWEB-0603","OBJECT_ID":"2022-166AB","EPOCH":"2026-05-19T05:46:12.537696","MEAN_MOTION":13.21825087,"ECCENTRICITY":0.0002064,"INCLINATION":87.926,"RA_OF_ASC_NODE":249.7159,"ARG_OF_PERICENTER":98.5356,"MEAN_ANOMALY":261.6012,"EPHEMERIS_TYPE":0,"CLASSIFICATION_TYPE":"U","NORAD_CAT_ID":54667,"ELEMENT_SET_NO":999,"REV_AT_EPOCH":16765,"BSTAR":0.00020576,"MEAN_MOTION_DOT":9.8e-07,"MEAN_MOTION_DDOT":0.0},{"OBJECT_NAME":"ONEWEB-0604","OBJECT_ID":"2022-166AC","EPOCH":"2026-05-19T05:29:15.502560","MEAN_MOTION":13.21825241,"ECCENTRICITY":0.0001889,"INCLINATION":87.9261,"RA_OF_ASC_NODE":249.7337,"ARG_OF_PERICENTER":100.7748,"MEAN_ANOMALY":259.3599,"EPHEMERIS_TYPE":0,"CLASSIFICATION_TYPE":"U","NORAD_CAT_ID":54668,"ELEMENT_SET_NO":999,"REV_AT_EPOCH":16761,"BSTAR":0.00018825,"MEAN_MOTION_DOT":9.1e-07,"MEAN_MOTION_DDOT":0.0},{"OBJECT_NAME":"ONEWEB-0605","OBJECT_ID":"2022-166AD","EPOCH":"2026-05-19T07:08:32.840448","MEAN_MOTION":13.21823111,"ECCENTRICITY":0.0002532,"INCLINATION":87.9247,"RA_OF_ASC_NODE":249.7356,"ARG_OF_PERICENTER":108.7737,"MEAN_ANOMALY":251.3672,"EPHEMERIS_TYPE":0,"CLASSIFICATION_TYPE":"U","NORAD_CAT_ID":54669,"ELEMENT_SET_NO":999,"REV_AT_EPOCH":16769,"BSTAR":-1.2303e-05,"MEAN_MOTION_DOT":8e-08,"MEAN_MOTION_DDOT":0.0},{"OBJECT_NAME":"ONEWEB-0606","OBJECT_ID":"2022-166AE","EPOCH":"2026-05-19T07:40:03.447840","MEAN_MOTION":13.21824808,"ECCENTRICITY":0.0001797,"INCLINATION":87.9245,"RA_OF_ASC_NODE":249.7434,"ARG_OF_PERICENTER":100.7831,"MEAN_ANOMALY":259.3505,"EPHEMERIS_TYPE":0,"CLASSIFICATION_TYPE":"U","NORAD_CAT_ID":54670,"ELEMENT_SET_NO":999,"REV_AT_EPOCH":16775,"BSTAR":2.9785e-05,"MEAN_MOTION_DOT":2.5e-07,"MEAN_MOTION_DDOT":0.0},{"OBJECT_NAME":"ONEWEB-0607","OBJECT_ID":"2022-166AF","EPOCH":"2026-05-19T06:51:36.780768","MEAN_MOTION":13.21826479,"ECCENTRICITY":0.0002092,"INCLINATION":87.9258,"RA_OF_ASC_NODE":249.7195,"ARG_OF_PERICENTER":96.7276,"MEAN_ANOMALY":263.4096,"EPHEMERIS_TYPE":0,"CLASSIFICATION_TYPE":"U","NORAD_CAT_ID":54671,"ELEMENT_SET_NO":999,"REV_AT_EPOCH":16772,"BSTAR":-1.0642e-05,"MEAN_MOTION_DOT":9e-08,"MEAN_MOTION_DDOT":0.0},{"OBJECT_NAME":"ONEWEB-0608","OBJECT_ID":"2022-166AG","EPOCH":"2026-05-19T07:01:17.993568","MEAN_MOTION":13.21822683,"ECCENTRICITY":0.0002525,"INCLINATION":87.9259,"RA_OF_ASC_NODE":249.714,"ARG_OF_PERICENTER":101.8345,"MEAN_ANOMALY":258.3072,"EPHEMERIS_TYPE":0,"CLASSIFICATION_TYPE":"U","NORAD_CAT_ID":54672,"ELEMENT_SET_NO":999,"REV_AT_EPOCH":16773,"BSTAR":-6.479200000000001e-05,"MEAN_MOTION_DOT":-1.4e-07,"MEAN_MOTION_DDOT":0.0},{"OBJECT_NAME":"ONEWEB-0610","OBJECT_ID":"2022-166AH","EPOCH":"2026-05-19T06:32:14.282592","MEAN_MOTION":13.21826511,"ECCENTRICITY":0.0002585,"INCLINATION":87.9251,"RA_OF_ASC_NODE":249.735,"ARG_OF_PERICENTER":95.9622,"MEAN_ANOMALY":264.1807,"EPHEMERIS_TYPE":0,"CLASSIFICATION_TYPE":"U","NORAD_CAT_ID":54673,"ELEMENT_SET_NO":999,"REV_AT_EPOCH":16763,"BSTAR":8.383e-05,"MEAN_MOTION_DOT":4.8e-07,"MEAN_MOTION_DDOT":0.0},{"OBJECT_NAME":"ONEWEB-0611","OBJECT_ID":"2022-166AJ","EPOCH":"2026-05-19T06:22:32.548800","MEAN_MOTION":13.21825984,"ECCENTRICITY":0.0001834,"INCLINATION":87.9244,"RA_OF_ASC_NODE":249.7325,"ARG_OF_PERICENTER":102.0353,"MEAN_ANOMALY":258.0987,"EPHEMERIS_TYPE":0,"CLASSIFICATION_TYPE":"U","NORAD_CAT_ID":54674,"ELEMENT_SET_NO":999,"REV_AT_EPOCH":16762,"BSTAR":0.00022199,"MEAN_MOTION_DOT":1.05e-06,"MEAN_MOTION_DDOT":0.0},{"OBJECT_NAME":"ONEWEB-0612","OBJECT_ID":"2022-166AK","EPOCH":"2026-05-19T06:41:54.941568","MEAN_MOTION":13.21827267,"ECCENTRICITY":0.0002193,"INCLINATION":87.9259,"RA_OF_ASC_NODE":249.7221,"ARG_OF_PERICENTER":100.1798,"MEAN_ANOMALY":259.9583,"EPHEMERIS_TYPE":0,"CLASSIFICATION_TYPE":"U","NORAD_CAT_ID":54675,"ELEMENT_SET_NO":999,"REV_AT_EPOCH":16761,"BSTAR":0.00016614,"MEAN_MOTION_DOT":8.2e-07,"MEAN_MOTION_DDOT":0.0},{"OBJECT_NAME":"ONEWEB-0615","OBJECT_ID":"2022-166AL","EPOCH":"2026-05-19T06:12:51.260832","MEAN_MOTION":13.21824832,"ECCENTRICITY":0.0001707,"INCLINATION":87.9253,"RA_OF_ASC_NODE":249.7434,"ARG_OF_PERICENTER":96.4789,"MEAN_ANOMALY":263.6539,"EPHEMERIS_TYPE":0,"CLASSIFICATION_TYPE":"U","NORAD_CAT_ID":54676,"ELEMENT_SET_NO":999,"REV_AT_EPOCH":16762,"BSTAR":0.00031815,"MEAN_MOTION_DOT":1.44e-06,"MEAN_MOTION_DDOT":0.0},{"OBJECT_NAME":"ONEWEB-0655","OBJECT_ID":"2022-166AM","EPOCH":"2026-05-19T07:27:56.964672","MEAN_MOTION":13.21824548,"ECCENTRICITY":0.0002051,"INCLINATION":87.9252,"RA_OF_ASC_NODE":249.735,"ARG_OF_PERICENTER":92.9641,"MEAN_ANOMALY":267.1728,"EPHEMERIS_TYPE":0,"CLASSIFICATION_TYPE":"U","NORAD_CAT_ID":54677,"ELEMENT_SET_NO":999,"REV_AT_EPOCH":16762,"BSTAR":-2.7398e-05,"MEAN_MOTION_DOT":2e-08,"MEAN_MOTION_DDOT":0.0},{"OBJECT_NAME":"ONEWEB-0659","OBJECT_ID":"2022-166AN","EPOCH":"2026-05-19T06:03:09.894240","MEAN_MOTION":13.21827138,"ECCENTRICITY":0.0001939,"INCLINATION":87.925,"RA_OF_ASC_NODE":249.7464,"ARG_OF_PERICENTER":102.2643,"MEAN_ANOMALY":257.8708,"EPHEMERIS_TYPE":0,"CLASSIFICATION_TYPE":"U","NORAD_CAT_ID":54678,"ELEMENT_SET_NO":999,"REV_AT_EPOCH":16770,"BSTAR":0.00028266,"MEAN_MOTION_DOT":1.3e-06,"MEAN_MOTION_DDOT":0.0}]