ONEWEB-0597             
1 54663U 22166X   26139.29593133  .00000028  00000+0  35355-4 0  9991
2 54663  87.9248 249.7370 0002087  98.9530 261.1840 13.21824154167723
ONEWEB-0600             
1 54664U 22166Y   26139.27743324  .00000011  00000+0 -40769-5 0  9998
2 54664  87.9250 249.7317 0001986  93.6282 266.5079 13.21826636167697
ONEWEB-0601             
1 54665U 22166Z   26139.26901793  .00000102  00000+0  21616-3 0  9992
2 54665  87.9241 249.7495 0002249 100.3347 259.8041 13.21827286167883
ONEWEB-0602             
1 54666U 22166AA  26139.31021579  .00000058  00000+0  11003-3 0  9993
2 54666  87.9250 249.7478 0002032  92.5240 267.6126 13.21823797167737
ONEWEB-0603             
1 54667U 22166AB  26139.24042289  .00000098  00000+0  20576-3 0  9996
2 54667  87.9260 249.7159 0002064  98.5356 261.6012 13.21825087167657
ONEWEB-0604             
1 54668U 22166AC  26139.22865165  .00000091  00000+0  18825-3 0  9998
2 54668  87.9261 249.7337 0001889 100.7748 259.3599 13.21825241167614
ONEWEB-0605             
1 54669U 22166AD  26139.29760232  .00000008  00000+0 -12303-4 0  9990
2 54669  87.9247 249.7356 0002532 108.7737 251.3672 13.21823111167698
ONEWEB-0606             
1 54670U 22166AE  26139.31948435  .00000025  00000+0  29785-4 0  9998
2 54670  87.9245 249.7434 0001797 100.7831 259.3505 13.21824808167758
ONEWEB-0607             
1 54671U 22166AF  26139.28584237  .00000009  00000+0 -10642-4 0  9996
2 54671  87.9258 249.7195 0002092  96.7276 263.4096 13.21826479167727
ONEWEB-0608             
1 54672U 22166AG  26139.29256937 -.00000014  00000+0 -64792-4 0  9993
2 54672  87.9259 249.7140 0002525 101.8345 258.3072 13.21822683167736
ONEWEB-0610             
1 54673U 22166AH  26139.27238753  .00000048  00000+0  83830-4 0  9997
2 54673  87.9251 249.7350 0002585  95.9622 264.1807 13.21826511167633
ONEWEB-0611             
1 54674U 22166AJ  26139.26565450  .00000105  00000+0  22199-3 0  9998
2 54674  87.9244 249.7325 0001834 102.0353 258.0987 13.21825984167628
ONEWEB-0612             
1 54675U 22166AK  26139.27910812  .00000082  00000+0  16614-3 0  9995
2 54675  87.9259 249.7221 0002193 100.1798 259.9583 13.21827267167618
ONEWEB-0615             
1 54676U 22166AL  26139.25892663  .00000144  00000+0  31815-3 0  9996
2 54676  87.9253 249.7434 0001707  96.4789 263.6539 13.21824832167625
ONEWEB-0655             
1 54677U 22166AM  26139.31107598  .00000002  00000+0 -27398-4 0  9996
2 54677  87.9252 249.7350 0002051  92.9641 267.1728 13.21824548167626
ONEWEB-0659             
1 54678U 22166AN  26139.25219785  .00000130  00000+0  28266-3 0  9997
2 54678  87.9250 249.7464 0001939 102.2643 257.8708 13.21827138167703
